{"type": "FeatureCollection", "features": [ {"type": "Feature", "properties": {"norad_id": 37404, "name": "FENGYUN 1C DEB", "group": "fengyun-1c-debris", "lat": -61.53390393181902, "lon": -1.434878747713123, "alt_km": 806.2546401801546, "timestamp": "2025-12-05T14:45:15.588031+00:00", "meta": {"OBJECT_NAME": "FENGYUN 1C DEB", "OBJECT_ID": "1999-025EFW", "EPOCH": "2025-12-03T11:46:07.339008", "MEAN_MOTION": 14.31589733, "ECCENTRICITY": 0.00440614, "INCLINATION": 98.4524, "RA_OF_ASC_NODE": 340.5795, "ARG_OF_PERICENTER": 189.623, "MEAN_ANOMALY": 324.9221, "EPHEMERIS_TYPE": 0, "CLASSIFICATION_TYPE": "U", "NORAD_CAT_ID": 37404, "ELEMENT_SET_NO": 999, "REV_AT_EPOCH": 82608, "BSTAR": 0.00096855201, "MEAN_MOTION_DOT": 2.564e-05, "MEAN_MOTION_DDOT": 0}, "tle": {"line1": "1 37404U 99025EFW 25337.49036272  .00002564  00000+0  96855-3 0  9998", "line2": "2 37404  98.4524 340.5795 0044061 189.6230 324.9221 14.31589733826080"}}, "geometry": {"type": "Point", "coordinates": [-1.434878747713123, -61.53390393181902]}}, {"type": "Feature", "properties": {"norad_id": 37406, "name": "FENGYUN 1C DEB", "group": "fengyun-1c-debris", "lat": -15.994095114203189, "lon": 29.808867658204814, "alt_km": 883.2903630323617, "timestamp": "2025-12-05T14:45:15.588042+00:00", "meta": {"OBJECT_NAME": "FENGYUN 1C DEB", "OBJECT_ID": "1999-025EFY", "EPOCH": "2025-12-03T22:32:55.996800", "MEAN_MOTION": 14.04235452, "ECCENTRICITY": 0.01504312, "INCLINATION": 98.4445, "RA_OF_ASC_NODE": 210.691, "ARG_OF_PERICENTER": 291.3645, "MEAN_ANOMALY": 82.4286, "EPHEMERIS_TYPE": 0, "CLASSIFICATION_TYPE": "U", "NORAD_CAT_ID": 37406, "ELEMENT_SET_NO": 999, "REV_AT_EPOCH": 63109, "BSTAR": 0.0024329497, "MEAN_MOTION_DOT": 4.233e-05, "MEAN_MOTION_DDOT": 0}, "tle": {"line1": "1 37406U 99025EFY 25337.93953700  .00004233  00000+0  24329-2 0  9994", "line2": "2 37406  98.4445 210.6910 0150431 291.3645  82.4286 14.04235452631098"}}, "geometry": {"type": "Point", "coordinates": [29.808867658204814, -15.994095114203189]}}, {"type": "Feature", "properties": {"norad_id": 37415, "name": "FENGYUN 1C DEB", "group": "fengyun-1c-debris", "lat": 79.63410631232199, "lon": 28.276031206840447, "alt_km": 1143.934334980786, "timestamp": "2025-12-05T14:45:15.588053+00:00", "meta": {"OBJECT_NAME": "FENGYUN 1C DEB", "OBJECT_ID": "1999-025EGH", "EPOCH": "2025-12-02T01:04:00.466176", "MEAN_MOTION": 13.52075679, "ECCENTRICITY": 0.02848718, "INCLINATION": 98.9818, "RA_OF_ASC_NODE": 84.8777, "ARG_OF_PERICENTER": 209.5506, "MEAN_ANOMALY": 148.9269, "EPHEMERIS_TYPE": 0, "CLASSIFICATION_TYPE": "U", "NORAD_CAT_ID": 37415, "ELEMENT_SET_NO": 999, "REV_AT_EPOCH": 62177, "BSTAR": 0.00059758334, "MEAN_MOTION_DOT": 4.68e-06, "MEAN_MOTION_DDOT": 0}, "tle": {"line1": "1 37415U 99025EGH 25336.04444984  .00000468  00000+0  59758-3 0  9995", "line2": "2 37415  98.9818  84.8777 0284871 209.5506 148.9269 13.52075679621770"}}, "geometry": {"type": "Point", "coordinates": [28.276031206840447, 79.63410631232199]}}, {"type": "Feature", "properties": {"norad_id": 37417, "name": "FENGYUN 1C DEB", "group": "fengyun-1c-debris", "lat": -70.80384581595725, "lon": 126.19143906488533, "alt_km": 825.5175830229755, "timestamp": "2025-12-05T14:45:15.588063+00:00", "meta": {"OBJECT_NAME": "FENGYUN 1C DEB", "OBJECT_ID": "1999-025EGK", "EPOCH": "2025-11-30T05:34:53.450976", "MEAN_MOTION": 14.07367073, "ECCENTRICITY": 0.00783952, "INCLINATION": 98.7959, "RA_OF_ASC_NODE": 327.3578, "ARG_OF_PERICENTER": 296.2961, "MEAN_ANOMALY": 63.017, "EPHEMERIS_TYPE": 0, "CLASSIFICATION_TYPE": "U", "NORAD_CAT_ID": 37417, "ELEMENT_SET_NO": 999, "REV_AT_EPOCH": 68174, "BSTAR": 0.00031485528, "MEAN_MOTION_DOT": 5e-06, "MEAN_MOTION_DDOT": 0}, "tle": {"line1": "1 37417U 99025EGK 25334.23256309  .00000500  00000+0  31486-3 0  9993", "line2": "2 37417  98.7959 327.3578 0078395 296.2961  63.0170 14.07367073681744"}}, "geometry": {"type": "Point", "coordinates": [126.19143906488533, -70.80384581595725]}}, {"type": "Feature", "properties": {"norad_id": 37418, "name": "FENGYUN 1C DEB", "group": "fengyun-1c-debris", "lat": 58.219390360547536, "lon": 68.31372339445875, "alt_km": 2394.7346476264656, "timestamp": "2025-12-05T14:45:15.588073+00:00", "meta": {"OBJECT_NAME": "FENGYUN 1C DEB", "OBJECT_ID": "1999-025EGL", "EPOCH": "2025-12-03T23:55:25.768992", "MEAN_MOTION": 11.95103309, "ECCENTRICITY": 0.10777187, "INCLINATION": 98.6131, "RA_OF_ASC_NODE": 233.0769, "ARG_OF_PERICENTER": 337.0843, "MEAN_ANOMALY": 18.5361, "EPHEMERIS_TYPE": 0, "CLASSIFICATION_TYPE": "U", "NORAD_CAT_ID": 37418, "ELEMENT_SET_NO": 999, "REV_AT_EPOCH": 49380, "BSTAR": 0.0055527554, "MEAN_MOTION_DOT": 2.288e-05, "MEAN_MOTION_DDOT": 0}, "tle": {"line1": "1 37418U 99025EGL 25337.99682603  .00002288  00000+0  55528-2 0  9997", "line2": "2 37418  98.6131 233.0769 1077718 337.0843  18.5361 11.95103309493802"}}, "geometry": {"type": "Point", "coordinates": [68.31372339445875, 58.219390360547536]}}, {"type": "Feature", "properties": {"norad_id": 37420, "name": "FENGYUN 1C DEB", "group": "fengyun-1c-debris", "lat": -32.41323556680161, "lon": -24.487703228512785, "alt_km": 856.4420436051232, "timestamp": "2025-12-05T14:45:15.588084+00:00", "meta": {"OBJECT_NAME": "FENGYUN 1C DEB", "OBJECT_ID": "1999-025EGN", "EPOCH": "2025-12-04T04:35:54.225312", "MEAN_MOTION": 13.997283, "ECCENTRICITY": 0.0071011, "INCLINATION": 98.8597, "RA_OF_ASC_NODE": 328.4512, "ARG_OF_PERICENTER": 300.0483, "MEAN_ANOMALY": 59.3651, "EPHEMERIS_TYPE": 0, "CLASSIFICATION_TYPE": "U", "NORAD_CAT_ID": 37420, "ELEMENT_SET_NO": 999, "REV_AT_EPOCH": 59645, "BSTAR": 0.00089399, "MEAN_MOTION_DOT": 1.294e-05, "MEAN_MOTION_DDOT": 0}, "tle": {"line1": "1 37420U 99025EGN 25338.19159983  .00001294  00000+0  89399-3 0  9993", "line2": "2 37420  98.8597 328.4512 0071011 300.0483  59.3651 13.99728300596457"}}, "geometry": {"type": "Point", "coordinates": [-24.487703228512785, -32.41323556680161]}}, {"type": "Feature", "properties": {"norad_id": 37421, "name": "FENGYUN 1C DEB", "group": "fengyun-1c-debris", "lat": 17.69111824681633, "lon": -67.65505734582473, "alt_km": 1070.3738911412938, "timestamp": "2025-12-05T14:45:15.588094+00:00", "meta": {"OBJECT_NAME": "FENGYUN 1C DEB", "OBJECT_ID": "1999-025EGP", "EPOCH": "2025-11-30T14:38:47.817024", "MEAN_MOTION": 13.40509147, "ECCENTRICITY": 0.0408836, "INCLINATION": 98.8864, "RA_OF_ASC_NODE": 290.7982, "ARG_OF_PERICENTER": 115.931, "MEAN_ANOMALY": 248.4546, "EPHEMERIS_TYPE": 0, "CLASSIFICATION_TYPE": "U", "NORAD_CAT_ID": 37421, "ELEMENT_SET_NO": 999, "REV_AT_EPOCH": 60783, "BSTAR": 0.00054336, "MEAN_MOTION_DOT": 4.53e-06, "MEAN_MOTION_DDOT": 0}, "tle": {"line1": "1 37421U 99025EGP 25334.61027566  .00000453  00000+0  54336-3 0  9997", "line2": "2 37421  98.8864 290.7982 0408836 115.9310 248.4546 13.40509147607839"}}, "geometry": {"type": "Point", "coordinates": [-67.65505734582473, 17.69111824681633]}}, {"type": "Feature", "properties": {"norad_id": 37423, "name": "FENGYUN 1C DEB", "group": "fengyun-1c-debris", "lat": 26.261975987411088, "lon": -145.57152114775974, "alt_km": 834.8070760701194, "timestamp": "2025-12-05T14:45:15.588104+00:00", "meta": {"OBJECT_NAME": "FENGYUN 1C DEB", "OBJECT_ID": "1999-025EGR", "EPOCH": "2025-12-02T09:15:11.081088", "MEAN_MOTION": 14.07508063, "ECCENTRICITY": 0.00491371, "INCLINATION": 98.7874, "RA_OF_ASC_NODE": 26.9108, "ARG_OF_PERICENTER": 188.2995, "MEAN_ANOMALY": 171.7367, "EPHEMERIS_TYPE": 0, "CLASSIFICATION_TYPE": "U", "NORAD_CAT_ID": 37423, "ELEMENT_SET_NO": 999, "REV_AT_EPOCH": 63464, "BSTAR": 0.00087659335, "MEAN_MOTION_DOT": 1.451e-05, "MEAN_MOTION_DDOT": 0}, "tle": {"line1": "1 37423U 99025EGR 25336.38554492  .00001451  00000+0  87659-3 0  9991", "line2": "2 37423  98.7874  26.9108 0049137 188.2995 171.7367 14.07508063634645"}}, "geometry": {"type": "Point", "coordinates": [-145.57152114775974, 26.261975987411088]}}, {"type": "Feature", "properties": {"norad_id": 37424, "name": "FENGYUN 1C DEB", "group": "fengyun-1c-debris", "lat": 55.36950050424183, "lon": -60.01386938873355, "alt_km": 982.1292211252558, "timestamp": "2025-12-05T14:45:15.588115+00:00", "meta": {"OBJECT_NAME": "FENGYUN 1C DEB", "OBJECT_ID": "1999-025EGS", "EPOCH": "2025-11-26T15:03:16.540128", "MEAN_MOTION": 14.17748147, "ECCENTRICITY": 0.02143557, "INCLINATION": 97.1976, "RA_OF_ASC_NODE": 102.1461, "ARG_OF_PERICENTER": 331.0381, "MEAN_ANOMALY": 27.9039, "EPHEMERIS_TYPE": 0, "CLASSIFICATION_TYPE": "U", "NORAD_CAT_ID": 37424, "ELEMENT_SET_NO": 999, "REV_AT_EPOCH": 68345, "BSTAR": 0.00085242664, "MEAN_MOTION_DOT": 2.145e-05, "MEAN_MOTION_DDOT": 0}, "tle": {"line1": "1 37424U 99025EGS 25330.62727477  .00002145  00000+0  85243-3 0  9996", "line2": "2 37424  97.1976 102.1461 0214355 331.0381  27.9039 14.17748147683455"}}, "geometry": {"type": "Point", "coordinates": [-60.01386938873355, 55.36950050424183]}}, {"type": "Feature", "properties": {"norad_id": 37427, "name": "FENGYUN 1C DEB", "group": "fengyun-1c-debris", "lat": -81.36046563426936, "lon": -146.41450552678828, "alt_km": 498.30938267167767, "timestamp": "2025-12-05T14:45:15.588125+00:00", "meta": {"OBJECT_NAME": "FENGYUN 1C DEB", "OBJECT_ID": "1999-025EGV", "EPOCH": "2025-11-25T03:26:10.747680", "MEAN_MOTION": 14.97768919, "ECCENTRICITY": 0.01887185, "INCLINATION": 98.6232, "RA_OF_ASC_NODE": 109.1733, "ARG_OF_PERICENTER": 355.7363, "MEAN_ANOMALY": 4.2239, "EPHEMERIS_TYPE": 0, "CLASSIFICATION_TYPE": "U", "NORAD_CAT_ID": 37427, "ELEMENT_SET_NO": 999, "REV_AT_EPOCH": 60059, "BSTAR": 0.00046451943, "MEAN_MOTION_DOT": 7.8e-05, "MEAN_MOTION_DDOT": 0}, "tle": {"line1": "1 37427U 99025EGV 25329.14317995  .00007800  00000+0  46452-3 0  9996", "line2": "2 37427  98.6232 109.1733 0188718 355.7363   4.2239 14.97768919600595"}}, "geometry": {"type": "Point", "coordinates": [-146.41450552678828, -81.36046563426936]}}]}